NORAD_CAT_ID,OBJECT_NAME,OBJECT_TYPE,EPOCH,MEAN_MOTION,ECCENTRICITY,INCLINATION,RA_OF_ASC_NODE,ARG_OF_PERICENTER,MEAN_ANOMALY,BSTAR,MEAN_MOTION_DOT,MEAN_MOTION_DDOT,TLE_LINE0,TLE_LINE1,TLE_LINE2,SEMIMAJOR_AXIS,PERIOD,APOGEE,PERIGEE,DECAYED
51974.0,STARLINK-3672,PAYLOAD,2023-12-20 12:30:23,15.06397204,0.0001466,53.0567,67.8663,71.8263,288.2886,-0.00012228,-2.102e-05,0.0,0 STARLINK-3672,1 51974U 22025U   23354.52110312 -.00002102  00000-0 -12228-3 0  9994,2 51974  53.0567  67.8663 0001466  71.8263 288.2886 15.06397204 98808,6925.357,95.592,548.237,546.207,0.0
51974.0,STARLINK-3672,PAYLOAD,2023-12-21 10:47:56,15.06399976,0.0001606,53.0564,63.6992,65.9092,294.2064,0.00016822,2.225e-05,0.0,0 STARLINK-3672,1 51974U 22025U   23355.44995498  .00002225  00000-0  16822-3 0  9990,2 51974  53.0564  63.6992 0001606  65.9092 294.2064 15.06399976100036,6925.349,95.592,548.326,546.101,0.0
51974.0,STARLINK-3672,PAYLOAD,2023-12-22 10:41:02,15.06394978,0.0001803,53.0562,59.2368,53.7695,306.346,0.00017445,2.317e-05,0.0,0 STARLINK-3672,1 51974U 22025U   23356.44516475  .00002317  00000-0  17445-3 0  9999,2 51974  53.0562  59.2368 0001803  53.7695 306.3460 15.06394978100183,6925.364,95.592,548.478,545.98,0.0
51974.0,STARLINK-3672,PAYLOAD,2023-12-23 10:34:07,15.06397123,0.0001858,53.0564,54.7703,73.9656,286.1538,1.3619e-05,-7.9e-07,0.0,0 STARLINK-3672,1 51974U 22025U   23357.44036941 -.00000079  00000-0  13619-4 0  9999,2 51974  53.0564  54.7703 0001858  73.9656 286.1538 15.06397123 99249,6925.357,95.592,548.509,545.936,0.0
51974.0,STARLINK-3672,PAYLOAD,2023-12-23 23:18:26,15.0640358,0.0001545,53.0558,52.3847,99.5998,260.5165,4.9475e-05,4.56e-06,0.0,0 STARLINK-3672,1 51974U 22025U   23357.97113723  .00000456  00000-0  49475-4 0  9998,2 51974  53.0558  52.3847 0001545  99.5998 260.5165 15.06403580100410,6925.338,95.592,548.273,546.133,0.0
51974.0,STARLINK-3672,PAYLOAD,2023-12-24 13:38:16,15.06410841,0.0001453,53.0569,49.6973,93.5479,266.5676,9.5732e-05,1.145e-05,0.0,0 STARLINK-3672,1 51974U 22025U   23358.56825047  .00001145  00000-0  95732-4 0  9996,2 51974  53.0569  49.6973 0001453  93.5479 266.5676 15.06410841 99415,6925.315,95.591,548.187,546.174,0.0
51974.0,STARLINK-3672,PAYLOAD,2023-12-25 03:58:09,15.06398012,0.0001252,53.0542,47.0136,128.1247,231.9855,-3.692e-05,-8.31e-06,0.0,0 STARLINK-3672,1 51974U 22025U   23359.16538372 -.00000831  00000-0 -36920-4 0  9992,2 51974  53.0542  47.0136 0001252 128.1247 231.9855 15.06398012100596,6925.355,95.592,548.087,546.353,0.0
51974.0,STARLINK-3672,PAYLOAD,2023-12-25 08:44:45,15.06401449,0.000139,53.0549,46.1276,92.4944,267.6205,8.3471e-05,9.62e-06,0.0,0 STARLINK-3672,1 51974U 22025U   23359.36442105  .00000962  00000-0  83471-4 0  9998,2 51974  53.0549  46.1276 0001390  92.4944 267.6205 15.06401449100626,6925.344,95.592,548.172,546.246,0.0
51974.0,STARLINK-3672,PAYLOAD,2023-12-26 03:51:15,15.06384207,0.0001316,53.0567,42.5561,90.5985,269.5155,-6.4448e-05,-1.241e-05,0.0,0 STARLINK-3672,1 51974U 22025U   23360.16059805 -.00001241  00000-0 -64448-4 0  9995,2 51974  53.0567  42.5561 0001316  90.5985 269.5155 15.06384207100745,6925.397,95.593,548.173,546.351,0.0
51974.0,STARLINK-3672,PAYLOAD,2023-12-26 08:37:52,15.06387782,0.0001676,53.0562,41.6618,108.5342,251.5829,-4.0532e-05,-8.85e-06,0.0,0 STARLINK-3672,1 51974U 22025U   23360.35963608 -.00000885  00000-0 -40532-4 0  9992,2 51974  53.0562  41.6618 0001676 108.5342 251.5829 15.06387782 99689,6925.386,95.593,548.412,546.09,0.0
51974.0,STARLINK-3672,PAYLOAD,2023-12-27 02:08:48,15.06391331,0.0001557,53.0554,38.3833,108.6793,251.4365,9.641e-05,1.154e-05,0.0,0 STARLINK-3672,1 51974U 22025U   23361.08944726  .00001154  00000-0  96410-4 0  9997,2 51974  53.0554  38.3833 0001557 108.6793 251.4365 15.06391331100885,6925.375,95.593,548.318,546.162,0.0
51974.0,STARLINK-3672,PAYLOAD,2023-12-27 10:06:29,15.06402781,0.00015,53.056,36.8964,102.817,257.2987,0.00017508,2.327e-05,0.0,0 STARLINK-3672,1 51974U 22025U   23361.42117457  .00002327  00000-0  17508-3 0  9991,2 51974  53.0560  36.8964 0001500 102.8170 257.2987 15.06402781100935,6925.34,95.592,548.244,546.166,0.0
51974.0,STARLINK-3672,PAYLOAD,2023-12-28 02:01:54,15.06390385,0.0001812,53.0565,33.9203,80.2672,279.8521,0.00017393,2.309e-05,0.0,0 STARLINK-3672,1 51974U 22025U   23362.08465319  .00002309  00000-0  17393-3 0  9999,2 51974  53.0565  33.9203 0001812  80.2672 279.8521 15.06390385101038,6925.378,95.593,548.498,545.988,0.0
51974.0,STARLINK-3672,PAYLOAD,2023-12-28 09:59:35,15.06393604,0.0001528,53.0558,32.4281,92.5176,267.5987,0.00018934,2.539e-05,0.0,0 STARLINK-3672,1 51974U 22025U   23362.41638655  .00002539  00000-0  18934-3 0  9998,2 51974  53.0558  32.4281 0001528  92.5176 267.5987 15.06393604 99997,6925.368,95.593,548.291,546.175,0.0
51974.0,STARLINK-3672,PAYLOAD,2023-12-29 08:17:08,15.06401392,0.00017,53.0564,28.2596,84.0061,276.1122,7.9938e-05,9.09e-06,0.0,0 STARLINK-3672,1 51974U 22025U   23363.34524158  .00000909  00000-0  79938-4 0  9994,2 51974  53.0564  28.2596 0001700  84.0061 276.1122 15.06401392101228,6925.344,95.592,548.387,546.032,0.0
51974.0,STARLINK-3672,PAYLOAD,2023-12-29 22:36:59,15.0645194,0.0001395,53.0554,25.579,82.6055,277.5092,-0.00065643,-0.00010059,0.0,0 STARLINK-3672,1 51974U 22025U   23363.94235583 -.00010059  00000-0 -65643-3 0  9997,2 51974  53.0554  25.5790 0001395  82.6055 277.5092 15.06451940101315,6925.189,95.589,548.02,546.088,0.0
51974.0,STARLINK-3672,PAYLOAD,2023-12-30 11:21:18,15.06403154,0.0001616,53.0555,23.1947,88.0488,272.0686,0.00012411,1.568e-05,0.0,0 STARLINK-3672,1 51974U 22025U   23364.47313358  .00001568  00000-0  12411-3 0  9991,2 51974  53.0555  23.1947 0001616  88.0488 272.0686 15.06403154101391,6925.339,95.592,548.323,546.085,0.0
51974.0,STARLINK-3672,PAYLOAD,2023-12-31 11:14:25,15.06393179,0.0001641,53.0556,18.7254,96.1471,263.9705,-3.2142e-05,-7.6e-06,0.0,0 STARLINK-3672,1 51974U 22025U   23365.46834690 -.00000760  00000-0 -32142-4 0  9997,2 51974  53.0556  18.7254 0001641  96.1471 263.9705 15.06393179101546,6925.369,95.593,548.371,546.098,0.0
51974.0,STARLINK-3672,PAYLOAD,2024-01-01 06:20:53,15.06396736,0.0001621,53.0557,15.1509,95.7394,264.3779,3.3168e-05,2.12e-06,0.0,0 STARLINK-3672,1 51974U 22025U   24001.26450653  .00000212  00000-0  33168-4 0  9995,2 51974  53.0557  15.1509 0001621  95.7394 264.3779 15.06396736100578,6925.359,95.592,548.346,546.101,0.0
51974.0,STARLINK-3672,PAYLOAD,2024-01-02 09:25:03,15.06397859,0.0001608,53.0562,10.0892,90.5969,269.5204,0.00012146,1.528e-05,0.0,0 STARLINK-3672,1 51974U 22025U   24002.39240367  .00001528  00000-0  12146-3 0  9992,2 51974  53.0562  10.0892 0001608  90.5969 269.5204 15.06397859101836,6925.355,95.592,548.334,546.107,0.0
51974.0,STARLINK-3672,PAYLOAD,2024-01-03 09:18:09,15.06398942,0.0001727,53.0573,5.6192,88.5999,271.5188,7.5796e-05,8.48e-06,0.0,0 STARLINK-3672,1 51974U 22025U   24003.38760788  .00000848  00000-0  75796-4 0  9991,2 51974  53.0573   5.6192 0001727  88.5999 271.5188 15.06398942100896,6925.352,95.592,548.413,546.021,0.0
51974.0,STARLINK-3672,PAYLOAD,2024-01-04 04:24:37,15.06401122,0.0001808,53.058,2.0426,82.7094,277.41,4.0797e-05,3.26e-06,0.0,0 STARLINK-3672,1 51974U 22025U   24004.18376969  .00000326  00000-0  40797-4 0  9998,2 51974  53.0580   2.0426 0001808  82.7094 277.4100 15.06401122102107,6925.345,95.592,548.462,545.958,0.0
51974.0,STARLINK-3672,PAYLOAD,2024-01-04 06:00:09,15.0640224,0.0001898,53.0585,1.7458,80.0584,280.0619,5.1494e-05,4.85e-06,0.0,0 STARLINK-3672,1 51974U 22025U   24004.25011569  .00000485  00000-0  51494-4 0  9990,2 51974  53.0585   1.7458 0001898  80.0584 280.0619 15.06402240101024,6925.342,95.592,548.521,545.892,0.0
51974.0,STARLINK-3672,PAYLOAD,2024-01-05 09:04:20,15.06402874,0.0001639,53.0562,356.687,69.0895,291.0269,4.7129e-05,4.21e-06,0.0,0 STARLINK-3672,1 51974U 22025U   24005.37801077  .00000421  00000-0  47129-4 0  9995,2 51974  53.0562 356.6870 0001639  69.0895 291.0269 15.06402874102289,6925.34,95.592,548.34,546.07,0.0
51974.0,STARLINK-3672,PAYLOAD,2024-01-06 04:10:49,15.06398972,0.0001523,53.0565,353.113,69.0486,291.0666,2.8993e-05,1.5e-06,0.0,0 STARLINK-3672,1 51974U 22025U   24006.17418715  .00000150  00000-0  28993-4 0  9994,2 51974  53.0565 353.1130 0001523  69.0486 291.0666 15.06398972102409,6925.352,95.592,548.271,546.162,0.0
51974.0,STARLINK-3672,PAYLOAD,2024-01-06 08:57:26,15.06398306,0.0001596,53.0561,352.2193,72.073,288.0433,7.1006e-05,7.76e-06,0.0,0 STARLINK-3672,1 51974U 22025U   24006.37322827  .00000776  00000-0  71006-4 0  9991,2 51974  53.0561 352.2193 0001596  72.0730 288.0433 15.06398306101341,6925.354,95.592,548.324,546.113,0.0
51974.0,STARLINK-3672,PAYLOAD,2024-01-07 04:03:53,15.06421299,0.0001435,53.0568,348.6461,80.1358,279.9793,0.00027115,3.762e-05,0.0,0 STARLINK-3672,1 51974U 22025U   24007.16936608  .00003762  00000-0  27115-3 0  9996,2 51974  53.0568 348.6461 0001435  80.1358 279.9793 15.06421299102553,6925.283,95.591,548.142,546.155,0.0
51974.0,STARLINK-3672,PAYLOAD,2024-01-07 23:10:23,15.06406904,0.0001219,53.0574,345.0715,85.6645,274.4483,9.198e-05,1.089e-05,0.0,0 STARLINK-3672,1 51974U 22025U   24007.96554409  .00001089  00000-0  91980-4 0  9991,2 51974  53.0574 345.0715 0001219  85.6645 274.4483 15.06406904101586,6925.327,95.592,548.037,546.348,0.0
51974.0,STARLINK-3672,PAYLOAD,2024-01-08 03:57:00,15.06398896,0.0001317,53.0569,344.1779,83.0238,277.0901,1.2484e-05,-9.5e-07,0.0,0 STARLINK-3672,1 51974U 22025U   24008.16459104 -.00000095  00000-0  12484-4 0  9999,2 51974  53.0569 344.1779 0001317  83.0238 277.0901 15.06398896102708,6925.352,95.592,548.129,546.305,0.0
51974.0,STARLINK-3672,PAYLOAD,2024-01-08 08:43:37,15.06398302,0.0001367,53.0566,343.2834,81.7631,278.3513,-8.9838e-06,-4.15e-06,0.0,0 STARLINK-3672,1 51974U 22025U   24008.36363208 -.00000415  00000-0 -89838-5 0  9995,2 51974  53.0566 343.2834 0001367  81.7631 278.3513 15.06398302101641,6925.354,95.592,548.165,546.272,0.0
